GPS BIIF-7  (PRN 09)    
1 40105U 14045A   26116.19938925  .00000031  00000+0  00000+0 0  9998
2 40105  55.3199  90.5347 0031664 119.1386 241.1664  2.00554931 85030
GPS BIIF-8  (PRN 03)    
1 40294U 14068A   26116.07340919 -.00000098  00000+0  00000+0 0  9993
2 40294  56.9539  32.9628 0065259  68.8513 291.8470  2.00572934 84168
GPS BIIF-9  (PRN 26)    
1 40534U 15013A   26115.70924992 -.00000039  00000+0  00000+0 0  9994
2 40534  53.1744 206.3479 0108874  39.9788 320.8435  2.00554458 80775
GPS BIIF-10 (PRN 08)    
1 40730U 15033A   26115.37018511 -.00000039  00000+0  00000+0 0  9998
2 40730  54.0255 269.2625 0115006  29.8840 330.7367  2.00558940 78932
GPS BIIF-11 (PRN 10)    
1 41019U 15062A   26115.92662522 -.00000097  00000+0  00000+0 0  9993
2 41019  56.9265  32.8248 0111250 231.5206 127.4823  2.00566971 76787
GPS BIIF-12 (PRN 32)    
1 41328U 16007A   26116.01441263  .00000035  00000+0  00000+0 0  9995
2 41328  55.4924  91.5265 0096118 247.0858 111.8862  2.00554140 74791
GPS BIII-1  (PRN 04)    
1 43873U 18109A   26116.40139615  .00000039  00000+0  00000+0 0  9999
2 43873  55.6514  94.2279 0037898 198.8751 333.4999  2.00559161 54031
GPS BIII-2  (PRN 18)    
1 44506U 19056A   26116.03754679 -.00000079  00000+0  00000+0 0  9992
2 44506  55.6604 333.2149 0059548 197.4328 334.3759  2.00569079 49024
GPS BIII-3  (PRN 23)    
1 45854U 20041A   26116.10218119 -.00000101  00000+0  00000+0 0  9993
2 45854  56.6381  30.9643 0062191 205.0511 313.8606  2.00559717 42992
GPS BIII-4  (PRN 14)    
1 46826U 20078A   26112.92753654 -.00000017  00000+0  00000+0 0  9993
2 46826  53.9891 213.0193 0070939 205.6597 155.6852  2.00564823 40404
GPS BIII-5  (PRN 11)    
1 48859U 21054A   26116.36989758 -.00000083  00000+0  00000+0 0  9997
2 48859  55.1971 334.5423 0024042 229.9230 282.5639  2.00572310 35718
GPS BIII-6  (PRN 28)    
1 55268U 23009A   26116.15940615  .00000060  00000+0  00000+0 0  9991
2 55268  55.1147 150.5635 0005615 315.2799  82.8080  2.00574943 24207
GPS BIII-7  (PRN 01)    
1 62339U 24242A   26116.23725212 -.00000085  00000+0  00000+0 0  9999
2 62339  54.8705 336.2872 0016832   0.5482 176.6523  2.00570556 10218
GPS BIII-8  (PRN 21)    
1 64202U 25116A   26113.24280751 -.00000081  00000+0  00000+0 0  9999
2 64202  55.1985  33.3417 0009124 335.2523  22.0569  2.00549673  6768
GPS BIII-9  (PRN 20)    
1 67588U 26017A   26110.36440864  .00000023  00000+0  00000+0 0  9998
2 67588  55.0497  91.0746 0024611 254.1378 105.5744  2.00572232430452
GPS BIII-10             
1 68791U 26087A   26112.34150053  .00002417  00000+0  19778-2 0  9994
2 68791  54.9968 210.8716 5942075 270.2176  26.1146  4.03281331    56
